NORAD_CAT_ID,OBJECT_NAME,OBJECT_TYPE,EPOCH,MEAN_MOTION,ECCENTRICITY,INCLINATION,RA_OF_ASC_NODE,ARG_OF_PERICENTER,MEAN_ANOMALY,BSTAR,MEAN_MOTION_DOT,MEAN_MOTION_DDOT,TLE_LINE0,TLE_LINE1,TLE_LINE2,SEMIMAJOR_AXIS,PERIOD,APOGEE,PERIGEE,DECAYED
52129.0,STARLINK-3661,PAYLOAD,2023-11-13 03:17:25,15.08838622,0.000174,53.2186,273.9319,93.0429,267.0762,8.5071e-05,1.066e-05,0.0,0 STARLINK-3661,1 52129U 22029AT  23317.13709513  .00001066  00000-0  85071-4 0  9997,2 52129  53.2186 273.9319 0001740  93.0429 267.0762 15.08838622 92980,6917.885,95.438,540.953,538.546,0.0
52129.0,STARLINK-3661,PAYLOAD,2023-11-13 06:28:11,15.08839415,0.0001559,53.2178,273.3363,85.4391,274.6779,4.0143e-05,3.51e-06,0.0,0 STARLINK-3661,1 52129U 22029AT  23317.26957507  .00000351  00000-0  40143-4 0  9996,2 52129  53.2178 273.3363 0001559  85.4391 274.6779 15.08839415 93002,6917.882,95.438,540.826,538.669,0.0
52129.0,STARLINK-3661,PAYLOAD,2023-11-13 22:22:02,15.08839201,0.0001578,53.217,270.365,85.2573,274.8599,5.7064e-05,6.2e-06,0.0,0 STARLINK-3661,1 52129U 22029AT  23317.93197660  .00000620  00000-0  57064-4 0  9995,2 52129  53.2170 270.3650 0001578  85.2573 274.8599 15.08839201 93107,6917.883,95.438,540.839,538.656,0.0
52129.0,STARLINK-3661,PAYLOAD,2023-11-14 06:18:57,15.08854278,0.0001408,53.2165,268.8773,97.5607,262.5546,0.00019125,2.758e-05,0.0,0 STARLINK-3661,1 52129U 22029AT  23318.26316695  .00002758  00000-0  19125-3 0  9992,2 52129  53.2165 268.8773 0001408  97.5607 262.5546 15.08854278 93157,6917.837,95.437,540.676,538.728,0.0
52129.0,STARLINK-3661,PAYLOAD,2023-11-14 20:37:27,15.08835654,0.0001703,53.2174,266.2023,83.4096,276.709,7.5501e-05,9.14e-06,0.0,0 STARLINK-3661,1 52129U 22029AT  23318.85934039  .00000914  00000-0  75501-4 0  9998,2 52129  53.2174 266.2023 0001703  83.4096 276.7090 15.08835654 93249,6917.894,95.438,540.937,538.581,0.0
52129.0,STARLINK-3661,PAYLOAD,2023-11-15 02:58:59,15.08835295,0.0001643,53.2168,265.0141,78.0618,282.0558,2.3423e-05,8.5e-07,0.0,0 STARLINK-3661,1 52129U 22029AT  23319.12430015  .00000085  00000-0  23423-4 0  9999,2 52129  53.2168 265.0141 0001643  78.0618 282.0558 15.08835295 93287,6917.895,95.438,540.896,538.623,0.0
52129.0,STARLINK-3661,PAYLOAD,2023-11-15 14:06:41,15.08839929,0.000154,53.2178,262.9298,92.0953,268.0215,0.0001055,1.391e-05,0.0,0 STARLINK-3661,1 52129U 22029AT  23319.58797740  .00001391  00000-0  10550-3 0  9997,2 52129  53.2178 262.9298 0001540  92.0953 268.0215 15.08839929 93351,6917.881,95.438,540.811,538.68,0.0
52129.0,STARLINK-3661,PAYLOAD,2023-11-15 23:38:59,15.08850141,0.0001465,53.217,261.1451,96.3686,263.7473,5.6706e-05,6.15e-06,0.0,0 STARLINK-3661,1 52129U 22029AT  23319.98541159  .00000615  00000-0  56706-4 0  9994,2 52129  53.2170 261.1451 0001465  96.3686 263.7473 15.08850141 93415,6917.849,95.437,540.728,538.701,0.0
52129.0,STARLINK-3661,PAYLOAD,2023-11-16 06:00:31,15.08853815,0.0001498,53.217,259.9551,99.3707,260.7455,8.1207e-05,1.005e-05,0.0,0 STARLINK-3661,1 52129U 22029AT  23320.25036710  .00001005  00000-0  81207-4 0  9996,2 52129  53.2170 259.9551 0001498  99.3707 260.7455 15.08853815 93456,6917.838,95.437,540.739,538.667,0.0
52129.0,STARLINK-3661,PAYLOAD,2023-11-17 01:05:10,15.08837914,0.0001813,53.2159,256.3848,102.6666,257.4529,3.5153e-05,2.71e-06,0.0,0 STARLINK-3661,1 52129U 22029AT  23321.04525723  .00000271  00000-0  35153-4 0  9994,2 52129  53.2159 256.3848 0001813 102.6666 257.4529 15.08837914 93576,6917.887,95.438,541.006,538.498,0.0
52129.0,STARLINK-3661,PAYLOAD,2023-11-17 12:12:52,15.0883885,0.0001407,53.217,254.305,83.0969,277.0183,4.8609e-05,4.86e-06,0.0,0 STARLINK-3661,1 52129U 22029AT  23321.50893843  .00000486  00000-0  48609-4 0  9994,2 52129  53.2170 254.3050 0001407  83.0969 277.0183 15.08838850 93641,6917.884,95.438,540.722,538.776,0.0
52129.0,STARLINK-3661,PAYLOAD,2023-11-18 02:31:22,15.08743829,0.0002287,53.2177,251.6288,100.8043,259.3206,0.0013623,0.00021403,0.0,0 STARLINK-3661,1 52129U 22029AT  23322.10512128  .00021403  00000-0  13623-2 0  9993,2 52129  53.2177 251.6288 0002287 100.8043 259.3206 15.08743829 93739,6918.174,95.444,541.622,538.457,0.0
52129.0,STARLINK-3661,PAYLOAD,2023-11-18 12:03:39,15.08837201,0.0001636,53.2177,249.8449,81.9877,278.1301,8.7009e-05,1.097e-05,0.0,0 STARLINK-3661,1 52129U 22029AT  23322.50253990  .00001097  00000-0  87009-4 0  9994,2 52129  53.2177 249.8449 0001636  81.9877 278.1301 15.08837201 93797,6917.889,95.438,540.886,538.622,0.0
52129.0,STARLINK-3661,PAYLOAD,2023-11-18 18:25:12,15.08835152,0.0001627,53.2167,248.6566,90.4002,269.7176,6.5551e-05,7.55e-06,0.0,0 STARLINK-3661,1 52129U 22029AT  23322.76750210  .00000755  00000-0  65551-4 0  9997,2 52129  53.2167 248.6566 0001627  90.4002 269.7176 15.08835152 93832,6917.895,95.438,540.886,538.635,0.0
52129.0,STARLINK-3661,PAYLOAD,2023-11-19 11:54:26,15.08839595,0.0001587,53.2178,245.3858,84.2171,275.9002,6.3589e-05,7.24e-06,0.0,0 STARLINK-3661,1 52129U 22029AT  23323.49614094  .00000724  00000-0  63589-4 0  9992,2 52129  53.2178 245.3858 0001587  84.2171 275.9002 15.08839595 93949,6917.882,95.438,540.844,538.649,0.0
52129.0,STARLINK-3661,PAYLOAD,2023-11-20 03:48:17,15.08840219,0.00016,53.2178,242.4122,85.4719,274.6456,0.00021813,3.185e-05,0.0,0 STARLINK-3661,1 52129U 22029AT  23324.15853548  .00003185  00000-0  21813-3 0  9992,2 52129  53.2178 242.4122 0001600  85.4719 274.6456 15.08840219 94044,6917.88,95.438,540.852,538.638,0.0
52129.0,STARLINK-3661,PAYLOAD,2023-11-20 11:45:13,15.08848127,0.000154,53.218,240.9261,83.3824,276.7344,7.0519e-05,8.35e-06,0.0,0 STARLINK-3661,1 52129U 22029AT  23324.48973392  .00000835  00000-0  70519-4 0  9995,2 52129  53.2180 240.9261 0001540  83.3824 276.7344 15.08848127 94091,6917.856,95.437,540.786,538.655,0.0
52129.0,STARLINK-3661,PAYLOAD,2023-11-21 03:39:04,15.08842962,0.0001541,53.2172,237.9508,82.5138,277.6029,4.225e-05,3.85e-06,0.0,0 STARLINK-3661,1 52129U 22029AT  23325.15213790  .00000385  00000-0  42250-4 0  9990,2 52129  53.2172 237.9508 0001541  82.5138 277.6029 15.08842962 94194,6917.871,95.437,540.802,538.67,0.0
52129.0,STARLINK-3661,PAYLOAD,2023-11-21 05:14:27,15.08843636,0.0001542,53.2174,237.6542,83.1923,276.9244,5.8665e-05,6.46e-06,0.0,0 STARLINK-3661,1 52129U 22029AT  23325.21837758  .00000646  00000-0  58665-4 0  9990,2 52129  53.2174 237.6542 0001542  83.1923 276.9244 15.08843636 94203,6917.869,95.437,540.801,538.668,0.0
52129.0,STARLINK-3661,PAYLOAD,2023-11-22 00:19:05,15.0884599,0.0001565,53.2166,234.0871,82.2432,277.8738,-5.7537e-06,-3.8e-06,0.0,0 STARLINK-3661,1 52129U 22029AT  23326.01325838 -.00000380  00000-0 -57537-5 0  9995,2 52129  53.2166 234.0871 0001565  82.2432 277.8738 15.08845990 94326,6917.862,95.437,540.81,538.644,0.0
52129.0,STARLINK-3661,PAYLOAD,2023-11-22 20:59:06,15.08837283,0.0001685,53.2163,230.2216,82.6495,277.4689,7.3294e-05,8.79e-06,0.0,0 STARLINK-3661,1 52129U 22029AT  23326.87438301  .00000879  00000-0  73294-4 0  9997,2 52129  53.2163 230.2216 0001685  82.6495 277.4689 15.08837283 94451,6917.889,95.438,540.919,538.588,0.0
52129.0,STARLINK-3661,PAYLOAD,2023-11-22 22:34:29,15.08837033,0.0001545,53.2164,229.9241,81.4212,278.6955,8.4086e-05,1.05e-05,0.0,0 STARLINK-3661,1 52129U 22029AT  23326.94062252  .00001050  00000-0  84086-4 0  9996,2 52129  53.2164 229.9241 0001545  81.4212 278.6955 15.08837033 94467,6917.889,95.438,540.823,538.686,0.0
52129.0,STARLINK-3661,PAYLOAD,2023-11-23 22:25:17,15.08844343,0.0001355,53.218,225.4622,97.6474,262.4672,-6.3984e-05,-1.306e-05,0.0,0 STARLINK-3661,1 52129U 22029AT  23327.93422454 -.00001306  00000-0 -63984-4 0  9990,2 52129  53.2180 225.4622 0001355  97.6474 262.4672 15.08844343 94613,6917.867,95.437,540.669,538.795,0.0
52129.0,STARLINK-3661,PAYLOAD,2023-11-24 03:11:26,15.08848735,0.0001576,53.2174,224.5684,102.6141,257.5027,-7.8951e-05,-1.545e-05,0.0,0 STARLINK-3661,1 52129U 22029AT  23328.13294146 -.00001545  00000-0 -78951-4 0  9993,2 52129  53.2174 224.5684 0001576 102.6141 257.5027 15.08848735 94648,6917.854,95.437,540.809,538.628,0.0
52129.0,STARLINK-3661,PAYLOAD,2023-11-24 17:29:55,15.08833987,0.00015,53.217,221.8918,100.2046,259.9116,8.0451e-05,9.92e-06,0.0,0 STARLINK-3661,1 52129U 22029AT  23328.72910927  .00000992  00000-0  80451-4 0  9991,2 52129  53.2170 221.8918 0001500 100.2046 259.9116 15.08833987 94737,6917.899,95.438,540.801,538.726,0.0
52129.0,STARLINK-3661,PAYLOAD,2023-11-24 22:16:04,15.08842662,0.0001489,53.2159,221.0,101.6802,258.4357,7.7548e-05,9.47e-06,0.0,0 STARLINK-3661,1 52129U 22029AT  23328.92782484  .00000947  00000-0  77548-4 0  9991,2 52129  53.2159 221.0000 0001489 101.6802 258.4357 15.08842662 94763,6917.872,95.437,540.767,538.707,0.0
52129.0,STARLINK-3661,PAYLOAD,2023-11-25 03:02:13,15.08843048,0.0001522,53.2166,220.1074,98.699,261.4175,0.00015403,2.164e-05,0.0,0 STARLINK-3661,1 52129U 22029AT  23329.12654308  .00002164  00000-0  15403-3 0  9991,2 52129  53.2166 220.1074 0001522  98.6990 261.4175 15.08843048 94797,6917.871,95.437,540.789,538.683,0.0
52129.0,STARLINK-3661,PAYLOAD,2023-11-25 22:06:50,15.08862752,0.0001548,53.2158,216.5394,113.6951,246.4203,0.00040201,6.12e-05,0.0,0 STARLINK-3661,1 52129U 22029AT  23329.92141506  .00006120  00000-0  40201-3 0  9990,2 52129  53.2158 216.5394 0001548 113.6951 246.4203 15.08862752 94917,6917.811,95.436,540.747,538.605,0.0
52129.0,STARLINK-3661,PAYLOAD,2023-11-26 02:52:59,15.08862068,0.000137,53.2175,215.6471,96.414,263.7009,0.0003701,5.611e-05,0.0,0 STARLINK-3661,1 52129U 22029AT  23330.12013402  .00005611  00000-0  37010-3 0  9995,2 52129  53.2175 215.6471 0001370  96.4140 263.7009 15.08862068 94942,6917.813,95.436,540.626,538.73,0.0
52129.0,STARLINK-3661,PAYLOAD,2023-11-26 20:22:16,15.08802118,0.0001561,53.2154,212.3753,118.1789,241.9361,-0.00060867,-9.952e-05,0.0,0 STARLINK-3661,1 52129U 22029AT  23330.84880720 -.00009952  00000-0 -60867-3 0  9999,2 52129  53.2154 212.3753 0001561 118.1789 241.9361 15.08802118 95051,6917.996,95.44,540.941,538.781,0.0
